IRIDIUM 155             
1 43573U 18061E   19327.58572408  .00000086  00000-0  23566-4 0  9999
2 43573  86.3949 338.6886 0001500  92.3629 267.7739 14.34218832 69712
IRIDIUM 154             
1 43574U 18061F   19327.56671664  .00000103  00000-0  29555-4 0  9996
2 43574  86.3953 338.7167 0002437  87.1766 272.9709 14.34217085 69753
IRIDIUM 163             
1 43575U 18061G   19327.54766198  .00000082  00000-0  22139-4 0  9999
2 43575  86.3951 338.7126 0002631 103.9381 256.2108 14.34215880 69729
IRIDIUM 156             
1 43576U 18061H   19327.52230321  .00000100  00000-0  28697-4 0  9998
2 43576  86.3951 338.7278 0002050 102.5321 257.6104 14.34217565 69703
IRIDIUM 164             
1 43577U 18061J   19327.57304847  .00000096  00000-0  27096-4 0  9995
2 43577  86.3951 338.7105 0002421  91.1317 269.0156 14.34217110 69769
IRIDIUM 159             
1 43578U 18061K   19327.54132449  .00000096  00000-0  27389-4 0  9995
2 43578  86.3950 338.7109 0002343  89.4029 270.7435 14.34218598 69722
IRIDIUM 180             
1 43922U 19002A   19327.47106696  .00000064  00000-0  15799-4 0  9998
2 43922  86.3960 275.5345 0003461  84.4531 275.7060 14.34218563 45366
IRIDIUM 176             
1 43923U 19002B   19327.46219727  .00000134  00000-0  17336-4 0  9995
2 43923  86.6096 275.5565 0002523  90.9630 269.1876 14.72256641 46470
IRIDIUM 168             
1 43924U 19002C   19327.53448598  .00000060  00000-0  14385-4 0  9993
2 43924  86.3963 275.5173 0002522  81.2111 278.9371 14.34218323 45315
IRIDIUM 173             
1 43925U 19002D   19327.52179297  .00000060  00000-0  14229-4 0  9997
2 43925  86.3958 275.5090 0002376  84.6888 275.4579 14.34216004 45308
IRIDIUM 169             
1 43926U 19002E   19326.48179370  .00000085  00000-0  21263-4 0  9997
2 43926  86.4304 307.5454 0004461 338.4207  21.6803 14.38646551 45362
IRIDIUM 172             
1 43927U 19002F   19327.51546084  .00000071  00000-0  18129-4 0  9995
2 43927  86.3959 275.5120 0002567  84.4443 275.7046 14.34218119 45303
IRIDIUM 175             
1 43928U 19002G   19327.52395660  .00000104  00000-0  12638-4 0  9995
2 43928  86.6079 275.4632 0001395  87.0301 273.1076 14.72248677 46475
IRIDIUM 171             
1 43929U 19002H   19327.42665040  .00000059  00000-0  13908-4 0  9997
2 43929  86.3969 275.5890 0002446  81.5807 278.5666 14.34219233 45282
IRIDIUM 170             
1 43930U 19002J   19327.46840656  .00000135  00000-0  17433-4 0  9993
2 43930  86.6095 275.5612 0002187  95.1911 264.9556 14.72248453 46486
IRIDIUM 167             
1 43931U 19002K   19327.42030586  .00000063  00000-0  15521-4 0  9999
2 43931  86.3960 275.5531 0003235  82.0059 278.1504 14.34215647 45282
